{"type":"FeatureCollection","features":[{"type":"Feature","geometry":{"type":"Point","coordinates":[-176.5852,51.9905000000001]},"properties":{"Volcano_Name":"Adagdak","Region":"Aleutians","Elevation":645,"Alert_Level":"UNASSIGNED","Color_Code":"UNASSIGNED","Threat":"Moderate Threat"}},{"type":"Feature","geometry":{"type":"Point","coordinates":[145.67,18.77]},"properties":{"Volcano_Name":"Agrigan","Region":"Northern Mariana Islands","Elevation":965,"Alert_Level":"UNASSIGNED","Color_Code":"UNASSIGNED","Threat":"High Threat"}},{"type":"Feature","geometry":{"type":"Point","coordinates":[145.03,20.4370000000001]},"properties":{"Volcano_Name":"Ahyi Seamount","Region":"Northern Mariana Islands","Elevation":-137,"Alert_Level":"ADVISORY","Color_Code":"YELLOW","Threat":"Very Low Threat"}},{"type":"Feature","geometry":{"type":"Point","coordinates":[-165.98555,54.1330800000001]},"properties":{"Volcano_Name":"Akutan","Region":"Aleutians","Elevation":1303,"Alert_Level":"NORMAL","Color_Code":"GREEN","Threat":"Very High Threat"}},{"type":"Feature","geometry":{"type":"Point","coordinates":[145.83,17.6]},"properties":{"Volcano_Name":"Alamagan","Region":"Northern Mariana Islands","Elevation":744,"Alert_Level":"UNASSIGNED","Color_Code":"UNASSIGNED","Threat":"High Threat"}},{"type":"Feature","geometry":{"type":"Point","coordinates":[-163.14687,55.4172800000001]},"properties":{"Volcano_Name":"Amak","Region":"Alaska Peninsula","Elevation":488,"Alert_Level":"UNASSIGNED","Color_Code":"UNASSIGNED","Threat":"Moderate Threat"}},{"type":"Feature","geometry":{"type":"Point","coordinates":[-171.25476,52.4941900000001]},"properties":{"Volcano_Name":"Amukta","Region":"Aleutians","Elevation":1066,"Alert_Level":"UNASSIGNED","Color_Code":"UNASSIGNED","Threat":"Moderate Threat"}},{"type":"Feature","geometry":{"type":"Point","coordinates":[145.67,16.35]},"properties":{"Volcano_Name":"Anatahan","Region":"Northern Mariana Islands","Elevation":790,"Alert_Level":"UNASSIGNED","Color_Code":"UNASSIGNED","Threat":"High Threat"}},{"type":"Feature","geometry":{"type":"Point","coordinates":[-158.209,56.9058]},"properties":{"Volcano_Name":"Aniakchak","Region":"Alaska Peninsula","Elevation":1341,"Alert_Level":"NORMAL","Color_Code":"GREEN","Threat":"High Threat"}},{"type":"Feature","geometry":{"type":"Point","coordinates":[145.4,19.6700000000001]},"properties":{"Volcano_Name":"Asuncion","Region":"Northern Mariana Islands","Elevation":857,"Alert_Level":"UNASSIGNED","Color_Code":"UNASSIGNED","Threat":"Moderate Threat"}},{"type":"Feature","geometry":{"type":"Point","coordinates":[-174.139,52.3309]},"properties":{"Volcano_Name":"Atka Volcanic Complex","Region":"Aleutians","Elevation":1533,"Alert_Level":"NORMAL","Color_Code":"GREEN","Threat":"High Threat"}},{"type":"Feature","geometry":{"type":"Point","coordinates":[-153.435,59.3626000000001]},"properties":{"Volcano_Name":"Augustine","Region":"Cook Inlet-South Central","Elevation":1252,"Alert_Level":"NORMAL","Color_Code":"GREEN","Threat":"Very High Threat"}},{"type":"Feature","geometry":{"type":"Point","coordinates":[-131.051,55.3196]},"properties":{"Volcano_Name":"Behm Canal-Rudyerd Bay","Region":"Southeast Alaska","Elevation":500,"Alert_Level":"UNASSIGNED","Color_Code":"UNASSIGNED","Threat":"Very Low Threat"}},{"type":"Feature","geometry":{"type":"Point","coordinates":[-121.841,44.285]},"properties":{"Volcano_Name":"Belknap Crater","Region":"Oregon","Elevation":2095,"Alert_Level":"UNASSIGNED","Color_Code":"UNASSIGNED","Threat":"Low Threat"}},{"type":"Feature","geometry":{"type":"Point","coordinates":[-114.35,43.1800000000001]},"properties":{"Volcano_Name":"Black Butte Crater lava field","Region":"Idaho","Elevation":1478,"Alert_Level":"UNASSIGNED","Color_Code":"UNASSIGNED","Threat":"Low Threat"}},{"type":"Feature","geometry":{"type":"Point","coordinates":[-158.787,56.5512]},"properties":{"Volcano_Name":"Black Peak","Region":"Alaska Peninsula","Elevation":1032,"Alert_Level":"UNASSIGNED","Color_Code":"UNASSIGNED","Threat":"Moderate Threat"}},{"type":"Feature","geometry":{"type":"Point","coordinates":[-112.5,38.97]},"properties":{"Volcano_Name":"Black Rock Desert Volcanic Field","Region":"Utah","Elevation":1800,"Alert_Level":"UNASSIGNED","Color_Code":"UNASSIGNED","Threat":"Moderate Threat"}},{"type":"Feature","geometry":{"type":"Point","coordinates":[-121.77,44.4200000000001]},"properties":{"Volcano_Name":"Blue Lake Crater","Region":"Oregon","Elevation":1230,"Alert_Level":"UNASSIGNED","Color_Code":"UNASSIGNED","Threat":"Low Threat"}},{"type":"Feature","geometry":{"type":"Point","coordinates":[-177.4409,51.9072]},"properties":{"Volcano_Name":"Bobrof","Region":"Aleutians","Elevation":738,"Alert_Level":"UNASSIGNED","Color_Code":"UNASSIGNED","Threat":"Low Threat"}},{"type":"Feature","geometry":{"type":"Point","coordinates":[-168.0344,53.9272]},"properties":{"Volcano_Name":"Bogoslof","Region":"Aleutians","Elevation":150,"Alert_Level":"UNASSIGNED","Color_Code":"UNASSIGNED","Threat":"Moderate Threat"}},{"type":"Feature","geometry":{"type":"Point","coordinates":[175.909,52.3488]},"properties":{"Volcano_Name":"Buldir","Region":"Aleutians","Elevation":656,"Alert_Level":"UNASSIGNED","Color_Code":"UNASSIGNED","Threat":"Low Threat"}},{"type":"Feature","geometry":{"type":"Point","coordinates":[-148.431932,64.0610820000001]},"properties":{"Volcano_Name":"Buzzard Creek","Region":"Interior Alaska","Elevation":830,"Alert_Level":"UNASSIGNED","Color_Code":"UNASSIGNED","Threat":"Low Threat"}},{"type":"Feature","geometry":{"type":"Point","coordinates":[-170.0576,52.8906]},"properties":{"Volcano_Name":"Carlisle","Region":"Aleutians","Elevation":1620,"Alert_Level":"UNASSIGNED","Color_Code":"UNASSIGNED","Threat":"Low Threat"}},{"type":"Feature","geometry":{"type":"Point","coordinates":[-105.93,33.78]},"properties":{"Volcano_Name":"Carrizozo lava flow","Region":"New Mexico","Elevation":1731,"Alert_Level":"UNASSIGNED","Color_Code":"UNASSIGNED","Threat":"Very Low Threat"}},{"type":"Feature","geometry":{"type":"Point","coordinates":[-171.1395,52.5714]},"properties":{"Volcano_Name":"Chagulak","Region":"Aleutians","Elevation":1142,"Alert_Level":"UNASSIGNED","Color_Code":"UNASSIGNED","Threat":"Low Threat"}},{"type":"Feature","geometry":{"type":"Point","coordinates":[-156.99147,57.1334800000001]},"properties":{"Volcano_Name":"Chiginagak","Region":"Alaska Peninsula","Elevation":2221,"Alert_Level":"UNASSIGNED","Color_Code":"UNASSIGNED","Threat":"Moderate Threat"}},{"type":"Feature","geometry":{"type":"Point","coordinates":[-122.108,43.241]},"properties":{"Volcano_Name":"Cinnamon Butte","Region":"Oregon","Elevation":1956,"Alert_Level":"UNASSIGNED","Color_Code":"UNASSIGNED","Threat":"Very Low Threat"}},{"type":"Feature","geometry":{"type":"Point","coordinates":[-122.77,38.97]},"properties":{"Volcano_Name":"Clear Lake Volcanic Field","Region":"California","Elevation":1439,"Alert_Level":"NORMAL","Color_Code":"GREEN","Threat":"High Threat"}},{"type":"Feature","geometry":{"type":"Point","coordinates":[-169.945,52.8222000000001]},"properties":{"Volcano_Name":"Cleveland","Region":"Aleutians","Elevation":1730,"Alert_Level":"NORMAL","Color_Code":"GREEN","Threat":"Moderate Threat"}},{"type":"Feature","geometry":{"type":"Point","coordinates":[-117.82,36.03]},"properties":{"Volcano_Name":"Coso Volcanic Field","Region":"California","Elevation":2400,"Alert_Level":"NORMAL","Color_Code":"GREEN","Threat":"Moderate Threat"}},{"type":"Feature","geometry":{"type":"Point","coordinates":[-122.12,42.9300000000001]},"properties":{"Volcano_Name":"Crater Lake","Region":"Oregon","Elevation":2487,"Alert_Level":"NORMAL","Color_Code":"GREEN","Threat":"Very High Threat"}},{"type":"Feature","geometry":{"type":"Point","coordinates":[-113.5,43.4200000000001]},"properties":{"Volcano_Name":"Craters of the Moon Volcanic Field","Region":"Idaho","Elevation":2005,"Alert_Level":"UNASSIGNED","Color_Code":"UNASSIGNED","Threat":"Low Threat"}},{"type":"Feature","geometry":{"type":"Point","coordinates":[144.194,21.3240000000001]},"properties":{"Volcano_Name":"Daikoku seamount","Region":"Northern Mariana Islands","Elevation":-323,"Alert_Level":"UNASSIGNED","Color_Code":"UNASSIGNED","Threat":"Very Low Threat"}},{"type":"Feature","geometry":{"type":"Point","coordinates":[-161.21551,55.64205]},"properties":{"Volcano_Name":"Dana","Region":"Alaska Peninsula","Elevation":1354,"Alert_Level":"UNASSIGNED","Color_Code":"UNASSIGNED","Threat":"Moderate Threat"}},{"type":"Feature","geometry":{"type":"Point","coordinates":[178.326,51.9542000000001]},"properties":{"Volcano_Name":"Davidof","Region":"Aleutians","Elevation":328,"Alert_Level":"UNASSIGNED","Color_Code":"UNASSIGNED","Threat":"Low Threat"}},{"type":"Feature","geometry":{"type":"Point","coordinates":[-121.82,43.57]},"properties":{"Volcano_Name":"Davis Lake volcanic field","Region":"Oregon","Elevation":1494,"Alert_Level":"UNASSIGNED","Color_Code":"UNASSIGNED","Threat":"Very Low Threat"}},{"type":"Feature","geometry":{"type":"Point","coordinates":[-154.451,58.4173000000001]},"properties":{"Volcano_Name":"Denison","Region":"Alaska Peninsula","Elevation":2287,"Alert_Level":"UNASSIGNED","Color_Code":"UNASSIGNED","Threat":"Moderate Threat"}},{"type":"Feature","geometry":{"type":"Point","coordinates":[-120.861,43.5120000000001]},"properties":{"Volcano_Name":"Devils Garden lava field","Region":"Oregon","Elevation":1698,"Alert_Level":"UNASSIGNED","Color_Code":"UNASSIGNED","Threat":"Very Low Threat"}},{"type":"Feature","geometry":{"type":"Point","coordinates":[-118.75,43.1000000000001]},"properties":{"Volcano_Name":"Diamond Craters volcanic field","Region":"Oregon","Elevation":1435,"Alert_Level":"UNASSIGNED","Color_Code":"UNASSIGNED","Threat":"Very Low Threat"}},{"type":"Feature","geometry":{"type":"Point","coordinates":[-107.03,39.65]},"properties":{"Volcano_Name":"Dotsero Volcanic Center","Region":"Colorado","Elevation":2230,"Alert_Level":"UNASSIGNED","Color_Code":"UNASSIGNED","Threat":"Moderate Threat"}},{"type":"Feature","geometry":{"type":"Point","coordinates":[-153.5351,58.8596000000001]},"properties":{"Volcano_Name":"Douglas","Region":"Alaska Peninsula","Elevation":2140,"Alert_Level":"UNASSIGNED","Color_Code":"UNASSIGNED","Threat":"Moderate Threat"}},{"type":"Feature","geometry":{"type":"Point","coordinates":[-133.102,56.4996]},"properties":{"Volcano_Name":"Duncan Canal","Region":"Southeast Alaska","Elevation":15,"Alert_Level":"UNASSIGNED","Color_Code":"UNASSIGNED","Threat":"Low Threat"}},{"type":"Feature","geometry":{"type":"Point","coordinates":[-162.2744,55.1867]},"properties":{"Volcano_Name":"Dutton","Region":"Alaska Peninsula","Elevation":1506,"Alert_Level":"NORMAL","Color_Code":"GREEN","Threat":"High Threat"}},{"type":"Feature","geometry":{"type":"Point","coordinates":[145.67,15.9300000000001]},"properties":{"Volcano_Name":"East Diamante","Region":"Northern Mariana Islands","Elevation":-127,"Alert_Level":"UNASSIGNED","Color_Code":"UNASSIGNED","Threat":"Moderate Threat"}},{"type":"Feature","geometry":{"type":"Point","coordinates":[-135.7611,57.0509000000001]},"properties":{"Volcano_Name":"Edgecumbe","Region":"Southeast Alaska","Elevation":970,"Alert_Level":"NORMAL","Color_Code":"GREEN","Threat":"Moderate Threat"}},{"type":"Feature","geometry":{"type":"Point","coordinates":[-162.0726,55.3409]},"properties":{"Volcano_Name":"Emmons Lake volcanic center","Region":"Alaska Peninsula","Elevation":1436,"Alert_Level":"UNASSIGNED","Color_Code":"UNASSIGNED","Threat":"Moderate Threat"}},{"type":"Feature","geometry":{"type":"Point","coordinates":[145.25,15]},"properties":{"Volcano_Name":"Esmeralda Bank","Region":"Northern Mariana Islands","Elevation":-43,"Alert_Level":"UNASSIGNED","Color_Code":"UNASSIGNED","Threat":"Low Threat"}},{"type":"Feature","geometry":{"type":"Point","coordinates":[144.9,20.53]},"properties":{"Volcano_Name":"Farallon de Pajaros","Region":"Northern Mariana Islands","Elevation":360,"Alert_Level":"UNASSIGNED","Color_Code":"UNASSIGNED","Threat":"Moderate Threat"}},{"type":"Feature","geometry":{"type":"Point","coordinates":[-164.3524,54.6692]},"properties":{"Volcano_Name":"Fisher","Region":"Aleutians","Elevation":1112,"Alert_Level":"NORMAL","Color_Code":"GREEN","Threat":"Moderate Threat"}},{"type":"Feature","geometry":{"type":"Point","coordinates":[-153.6738,58.7703000000001]},"properties":{"Volcano_Name":"Fourpeaked","Region":"Alaska Peninsula","Elevation":2105,"Alert_Level":"UNASSIGNED","Color_Code":"UNASSIGNED","Threat":"Low Threat"}},{"type":"Feature","geometry":{"type":"Point","coordinates":[-162.8354,55.0673]},"properties":{"Volcano_Name":"Frosty","Region":"Alaska Peninsula","Elevation":2012,"Alert_Level":"UNASSIGNED","Color_Code":"UNASSIGNED","Threat":"Moderate Threat"}},{"type":"Feature","geometry":{"type":"Point","coordinates":[143.47,21.9300000000001]},"properties":{"Volcano_Name":"Fukujin seamount","Region":"Northern Mariana Islands","Elevation":-217,"Alert_Level":"UNASSIGNED","Color_Code":"UNASSIGNED","Threat":"Very Low Threat"}},{"type":"Feature","geometry":{"type":"Point","coordinates":[-178.796,51.7892]},"properties":{"Volcano_Name":"Gareloi","Region":"Aleutians","Elevation":1573,"Alert_Level":"NORMAL","Color_Code":"GREEN","Threat":"High Threat"}},{"type":"Feature","geometry":{"type":"Point","coordinates":[-121.113,48.1120000000001]},"properties":{"Volcano_Name":"Glacier Peak","Region":"Washington","Elevation":3213,"Alert_Level":"NORMAL","Color_Code":"GREEN","Threat":"Very High Threat"}},{"type":"Feature","geometry":{"type":"Point","coordinates":[-176.1109,52.0765000000001]},"properties":{"Volcano_Name":"Great Sitkin","Region":"Aleutians","Elevation":1740,"Alert_Level":"WATCH","Color_Code":"ORANGE","Threat":"High Threat"}},{"type":"Feature","geometry":{"type":"Point","coordinates":[-155.1037,58.3572]},"properties":{"Volcano_Name":"Griggs","Region":"Alaska Peninsula","Elevation":2317,"Alert_Level":"NORMAL","Color_Code":"GREEN","Threat":"High Threat"}},{"type":"Feature","geometry":{"type":"Point","coordinates":[145.85,17.32]},"properties":{"Volcano_Name":"Guguan","Region":"Northern Mariana Islands","Elevation":287,"Alert_Level":"UNASSIGNED","Color_Code":"UNASSIGNED","Threat":"Moderate Threat"}},{"type":"Feature","geometry":{"type":"Point","coordinates":[-156.25,20.708]},"properties":{"Volcano_Name":"Haleakala","Region":"Hawaii","Elevation":3055,"Alert_Level":"NORMAL","Color_Code":"GREEN","Threat":"Moderate Threat"}},{"type":"Feature","geometry":{"type":"Point","coordinates":[-152.4182,61.5991000000001]},"properties":{"Volcano_Name":"Hayes","Region":"Cook Inlet-South Central","Elevation":3034,"Alert_Level":"UNASSIGNED","Color_Code":"UNASSIGNED","Threat":"High Threat"}},{"type":"Feature","geometry":{"type":"Point","coordinates":[-112.45,43.5000000000001]},"properties":{"Volcano_Name":"Hells Half Acre lava field","Region":"Idaho","Elevation":1631,"Alert_Level":"UNASSIGNED","Color_Code":"UNASSIGNED","Threat":"Low Threat"}},{"type":"Feature","geometry":{"type":"Point","coordinates":[-170.113,52.741]},"properties":{"Volcano_Name":"Herbert","Region":"Aleutians","Elevation":1280,"Alert_Level":"UNASSIGNED","Color_Code":"UNASSIGNED","Threat":"Low Threat"}},{"type":"Feature","geometry":{"type":"Point","coordinates":[-155.87,19.6920000000001]},"properties":{"Volcano_Name":"Hualalai","Region":"Hawaii","Elevation":2523,"Alert_Level":"NORMAL","Color_Code":"GREEN","Threat":"High Threat"}},{"type":"Feature","geometry":{"type":"Point","coordinates":[-153.0918,60.0319000000001]},"properties":{"Volcano_Name":"Iliamna","Region":"Cook Inlet-South Central","Elevation":3053,"Alert_Level":"NORMAL","Color_Code":"GREEN","Threat":"High Threat"}},{"type":"Feature","geometry":{"type":"Point","coordinates":[-163.92,65.6000000000001]},"properties":{"Volcano_Name":"Imuruk Lake","Region":"Seward Peninsula","Elevation":610,"Alert_Level":"UNASSIGNED","Color_Code":"UNASSIGNED","Threat":"Very Low Threat"}},{"type":"Feature","geometry":{"type":"Point","coordinates":[-121.82,45.9300000000001]},"properties":{"Volcano_Name":"Indian Heaven Volcanic Field","Region":"Washington","Elevation":1806,"Alert_Level":"UNASSIGNED","Color_Code":"UNASSIGNED","Threat":"Low Threat"}},{"type":"Feature","geometry":{"type":"Point","coordinates":[-164.47,61.4300000000001]},"properties":{"Volcano_Name":"Ingakslugwat Hills","Region":"Southwest Alaska","Elevation":190,"Alert_Level":"UNASSIGNED","Color_Code":"UNASSIGNED","Threat":"Low Threat"}},{"type":"Feature","geometry":{"type":"Point","coordinates":[-163.72904,54.7679900000001]},"properties":{"Volcano_Name":"Isanotski","Region":"Aleutians","Elevation":2446,"Alert_Level":"NORMAL","Color_Code":"GREEN","Threat":"Low Threat"}},{"type":"Feature","geometry":{"type":"Point","coordinates":[-117.47,43.15]},"properties":{"Volcano_Name":"Jordan Craters volcanic field","Region":"Oregon","Elevation":1473,"Alert_Level":"UNASSIGNED","Color_Code":"UNASSIGNED","Threat":"Very Low Threat"}},{"type":"Feature","geometry":{"type":"Point","coordinates":[-169.719,52.9726]},"properties":{"Volcano_Name":"Kagamil","Region":"Aleutians","Elevation":893,"Alert_Level":"UNASSIGNED","Color_Code":"UNASSIGNED","Threat":"Low Threat"}},{"type":"Feature","geometry":{"type":"Point","coordinates":[-154.0245,58.6113]},"properties":{"Volcano_Name":"Kaguyak","Region":"Alaska Peninsula","Elevation":901,"Alert_Level":"UNASSIGNED","Color_Code":"UNASSIGNED","Threat":"High Threat"}},{"type":"Feature","geometry":{"type":"Point","coordinates":[-155.27,18.9200000000001]},"properties":{"Volcano_Name":"Kama'ehuakanaloa Seamount","Region":"Hawaii","Elevation":-975,"Alert_Level":"UNASSIGNED","Color_Code":"UNASSIGNED","Threat":"Waiting for Threat Level"}},{"type":"Feature","geometry":{"type":"Point","coordinates":[-177.1623,51.9242]},"properties":{"Volcano_Name":"Kanaga","Region":"Aleutians","Elevation":1307,"Alert_Level":"NORMAL","Color_Code":"GREEN","Threat":"High Threat"}},{"type":"Feature","geometry":{"type":"Point","coordinates":[-175.5113,52.1693000000001]},"properties":{"Volcano_Name":"Kasatochi","Region":"Aleutians","Elevation":314,"Alert_Level":"UNASSIGNED","Color_Code":"UNASSIGNED","Threat":"Moderate Threat"}},{"type":"Feature","geometry":{"type":"Point","coordinates":[143.637,21.6]},"properties":{"Volcano_Name":"Kasuga 2","Region":"Northern Mariana Islands","Elevation":-274,"Alert_Level":"UNASSIGNED","Color_Code":"UNASSIGNED","Threat":"Very Low Threat"}},{"type":"Feature","geometry":{"type":"Point","coordinates":[-154.9533,58.2790000000001]},"properties":{"Volcano_Name":"Katmai","Region":"Alaska Peninsula","Elevation":2047,"Alert_Level":"NORMAL","Color_Code":"GREEN","Threat":"High Threat"}},{"type":"Feature","geometry":{"type":"Point","coordinates":[-156.7467,57.2019000000001]},"properties":{"Volcano_Name":"Kialagvik","Region":"Alaska Peninsula","Elevation":1677,"Alert_Level":"UNASSIGNED","Color_Code":"UNASSIGNED","Threat":"Moderate Threat"}},{"type":"Feature","geometry":{"type":"Point","coordinates":[-155.287,19.421]},"properties":{"Volcano_Name":"Kilauea","Region":"Hawaii","Elevation":1222,"Alert_Level":"ADVISORY","Color_Code":"YELLOW","Threat":"Very High Threat"}},{"type":"Feature","geometry":{"type":"Point","coordinates":[177.6035,52.1031]},"properties":{"Volcano_Name":"Kiska","Region":"Aleutians","Elevation":1220,"Alert_Level":"UNASSIGNED","Color_Code":"UNASSIGNED","Threat":"Moderate Threat"}},{"type":"Feature","geometry":{"type":"Point","coordinates":[-175.1323,52.2189000000001]},"properties":{"Volcano_Name":"Koniuji","Region":"Aleutians","Elevation":273,"Alert_Level":"UNASSIGNED","Color_Code":"UNASSIGNED","Threat":"Low Threat"}},{"type":"Feature","geometry":{"type":"Point","coordinates":[-154.3573,58.4528000000001]},"properties":{"Volcano_Name":"Kukak","Region":"Alaska Peninsula","Elevation":2043,"Alert_Level":"UNASSIGNED","Color_Code":"UNASSIGNED","Threat":"Moderate Threat"}},{"type":"Feature","geometry":{"type":"Point","coordinates":[-159.7912,56.0126000000001]},"properties":{"Volcano_Name":"Kupreanof","Region":"Alaska Peninsula","Elevation":1895,"Alert_Level":"ADVISORY","Color_Code":"YELLOW","Threat":"Moderate Threat"}},{"type":"Feature","geometry":{"type":"Point","coordinates":[-121.508,40.4920000000001]},"properties":{"Volcano_Name":"Lassen Volcanic Center","Region":"California","Elevation":3187,"Alert_Level":"NORMAL","Color_Code":"GREEN","Threat":"Very High Threat"}},{"type":"Feature","geometry":{"type":"Point","coordinates":[178.5356,51.9531]},"properties":{"Volcano_Name":"Little Sitkin","Region":"Aleutians","Elevation":1174,"Alert_Level":"NORMAL","Color_Code":"GREEN","Threat":"Moderate Threat"}},{"type":"Feature","geometry":{"type":"Point","coordinates":[-118.87,37.7]},"properties":{"Volcano_Name":"Long Valley Caldera","Region":"California","Elevation":2600,"Alert_Level":"NORMAL","Color_Code":"GREEN","Threat":"Very High Threat"}},{"type":"Feature","geometry":{"type":"Point","coordinates":[-155.2544,58.1946]},"properties":{"Volcano_Name":"Mageik","Region":"Alaska Peninsula","Elevation":2165,"Alert_Level":"NORMAL","Color_Code":"GREEN","Threat":"High Threat"}},{"type":"Feature","geometry":{"type":"Point","coordinates":[-166.925,53.8899000000001]},"properties":{"Volcano_Name":"Makushin","Region":"Aleutians","Elevation":1800,"Alert_Level":"NORMAL","Color_Code":"GREEN","Threat":"Very High Threat"}},{"type":"Feature","geometry":{"type":"Point","coordinates":[-119.032,37.631]},"properties":{"Volcano_Name":"Mammoth Mountain","Region":"California","Elevation":3369,"Alert_Level":"NORMAL","Color_Code":"GREEN","Threat":"Moderate Threat"}},{"type":"Feature","geometry":{"type":"Point","coordinates":[-112.67,37.58]},"properties":{"Volcano_Name":"Markagunt Plateau Volcanic Field","Region":"Utah","Elevation":2840,"Alert_Level":"UNASSIGNED","Color_Code":"UNASSIGNED","Threat":"Low Threat"}},{"type":"Feature","geometry":{"type":"Point","coordinates":[-155.3566,58.1692]},"properties":{"Volcano_Name":"Martin","Region":"Alaska Peninsula","Elevation":1863,"Alert_Level":"NORMAL","Color_Code":"GREEN","Threat":"High Threat"}},{"type":"Feature","geometry":{"type":"Point","coordinates":[145.22,20.02]},"properties":{"Volcano_Name":"Maug Islands","Region":"Northern Mariana Islands","Elevation":227,"Alert_Level":"UNASSIGNED","Color_Code":"UNASSIGNED","Threat":"Low Threat"}},{"type":"Feature","geometry":{"type":"Point","coordinates":[-155.47,19.8200000000001]},"properties":{"Volcano_Name":"Mauna Kea","Region":"Hawaii","Elevation":4207.3,"Alert_Level":"NORMAL","Color_Code":"GREEN","Threat":"Moderate Threat"}},{"type":"Feature","geometry":{"type":"Point","coordinates":[-155.608,19.475]},"properties":{"Volcano_Name":"Mauna Loa","Region":"Hawaii","Elevation":4169.4,"Alert_Level":"NORMAL","Color_Code":"GREEN","Threat":"Very High Threat"}},{"type":"Feature","geometry":{"type":"Point","coordinates":[-121.554,41.6110000000001]},"properties":{"Volcano_Name":"Medicine Lake volcano","Region":"California","Elevation":2412,"Alert_Level":"NORMAL","Color_Code":"GREEN","Threat":"High Threat"}},{"type":"Feature","geometry":{"type":"Point","coordinates":[-176.741,51.9370000000001]},"properties":{"Volcano_Name":"Moffett","Region":"Aleutians","Elevation":1196,"Alert_Level":"UNASSIGNED","Color_Code":"UNASSIGNED","Threat":"Moderate Threat"}},{"type":"Feature","geometry":{"type":"Point","coordinates":[-119.03,38]},"properties":{"Volcano_Name":"Mono Lake Volcanic Field","Region":"California","Elevation":2121,"Alert_Level":"NORMAL","Color_Code":"GREEN","Threat":"Moderate Threat"}},{"type":"Feature","geometry":{"type":"Point","coordinates":[-119.02,37.8200000000001]},"properties":{"Volcano_Name":"Mono-Inyo Chain","Region":"California","Elevation":2629,"Alert_Level":"NORMAL","Color_Code":"GREEN","Threat":"High Threat"}},{"type":"Feature","geometry":{"type":"Point","coordinates":[-121.49,46.2060000000001]},"properties":{"Volcano_Name":"Mount Adams","Region":"Washington","Elevation":3742,"Alert_Level":"NORMAL","Color_Code":"GREEN","Threat":"High Threat"}},{"type":"Feature","geometry":{"type":"Point","coordinates":[-121.688,43.979]},"properties":{"Volcano_Name":"Mount Bachelor","Region":"Oregon","Elevation":2764,"Alert_Level":"UNASSIGNED","Color_Code":"UNASSIGNED","Threat":"Moderate Threat"}},{"type":"Feature","geometry":{"type":"Point","coordinates":[-121.813,48.777]},"properties":{"Volcano_Name":"Mount Baker","Region":"Washington","Elevation":3286.05,"Alert_Level":"NORMAL","Color_Code":"GREEN","Threat":"Very High Threat"}},{"type":"Feature","geometry":{"type":"Point","coordinates":[-141.7152,61.4187000000001]},"properties":{"Volcano_Name":"Mount Churchill","Region":"Alaska","Elevation":5005,"Alert_Level":"UNASSIGNED","Color_Code":"UNASSIGNED","Threat":""}},{"type":"Feature","geometry":{"type":"Point","coordinates":[-121.695,45.3740000000001]},"properties":{"Volcano_Name":"Mount Hood","Region":"Oregon","Elevation":3426,"Alert_Level":"NORMAL","Color_Code":"GREEN","Threat":"Very High Threat"}},{"type":"Feature","geometry":{"type":"Point","coordinates":[-121.8,44.674]},"properties":{"Volcano_Name":"Mount Jefferson","Region":"Oregon","Elevation":3199,"Alert_Level":"NORMAL","Color_Code":"GREEN","Threat":"Low Threat"}},{"type":"Feature","geometry":{"type":"Point","coordinates":[-121.76,46.8530000000001]},"properties":{"Volcano_Name":"Mount Rainier","Region":"Washington","Elevation":4392.168,"Alert_Level":"NORMAL","Color_Code":"GREEN","Threat":"Very High Threat"}},{"type":"Feature","geometry":{"type":"Point","coordinates":[-168.5382,53.1536]},"properties":{"Volcano_Name":"Mount Recheshnoi","Region":"Aleutians","Elevation":1984,"Alert_Level":"UNASSIGNED","Color_Code":"UNASSIGNED","Threat":"Moderate Threat"}},{"type":"Feature","geometry":{"type":"Point","coordinates":[-122.193,41.409]},"properties":{"Volcano_Name":"Mount Shasta","Region":"California","Elevation":4317,"Alert_Level":"NORMAL","Color_Code":"GREEN","Threat":"Very High Threat"}},{"type":"Feature","geometry":{"type":"Point","coordinates":[-122.18,46.2]},"properties":{"Volcano_Name":"Mount St. Helens","Region":"Washington","Elevation":2538.984,"Alert_Level":"NORMAL","Color_Code":"GREEN","Threat":"Very High Threat"}},{"type":"Feature","geometry":{"type":"Point","coordinates":[-121.229,43.722]},"properties":{"Volcano_Name":"Newberry","Region":"Oregon","Elevation":2434,"Alert_Level":"NORMAL","Color_Code":"GREEN","Threat":"Very High Threat"}},{"type":"Feature","geometry":{"type":"Point","coordinates":[-155.1591,58.2654]},"properties":{"Volcano_Name":"Novarupta","Region":"Alaska Peninsula","Elevation":841,"Alert_Level":"NORMAL","Color_Code":"GREEN","Threat":"High Threat"}},{"type":"Feature","geometry":{"type":"Point","coordinates":[-169.618,-14.175]},"properties":{"Volcano_Name":"Ofu-Olosega","Region":"American Samoa","Elevation":639,"Alert_Level":"NORMAL","Color_Code":"GREEN","Threat":"Low Threat"}},{"type":"Feature","geometry":{"type":"Point","coordinates":[-168.166,53.397]},"properties":{"Volcano_Name":"Okmok","Region":"Aleutians","Elevation":1073,"Alert_Level":"NORMAL","Color_Code":"GREEN","Threat":"High Threat"}},{"type":"Feature","geometry":{"type":"Point","coordinates":[145.8,18.1300000000001]},"properties":{"Volcano_Name":"Pagan","Region":"Northern Mariana Islands","Elevation":570,"Alert_Level":"UNASSIGNED","Color_Code":"UNASSIGNED","Threat":"High Threat"}},{"type":"Feature","geometry":{"type":"Point","coordinates":[-161.8937,55.4173000000001]},"properties":{"Volcano_Name":"Pavlof","Region":"Alaska Peninsula","Elevation":2519,"Alert_Level":"NORMAL","Color_Code":"GREEN","Threat":"High Threat"}},{"type":"Feature","geometry":{"type":"Point","coordinates":[-161.8544,55.4569000000001]},"properties":{"Volcano_Name":"Pavlof Sister","Region":"Alaska Peninsula","Elevation":2142,"Alert_Level":"UNASSIGNED","Color_Code":"UNASSIGNED","Threat":"High Threat"}},{"type":"Feature","geometry":{"type":"Point","coordinates":[-108.83,34.2500000000001]},"properties":{"Volcano_Name":"Red Hill-Quemado Volcanic Field","Region":"New Mexico","Elevation":2300,"Alert_Level":"UNASSIGNED","Color_Code":"UNASSIGNED","Threat":"Very Low Threat"}},{"type":"Feature","geometry":{"type":"Point","coordinates":[-152.7438,60.4852000000001]},"properties":{"Volcano_Name":"Redoubt","Region":"Cook Inlet-South Central","Elevation":3108,"Alert_Level":"NORMAL","Color_Code":"GREEN","Threat":"Very High Threat"}},{"type":"Feature","geometry":{"type":"Point","coordinates":[-163.5914,54.7992]},"properties":{"Volcano_Name":"Roundtop","Region":"Aleutians","Elevation":1871,"Alert_Level":"UNASSIGNED","Color_Code":"UNASSIGNED","Threat":"Moderate Threat"}},{"type":"Feature","geometry":{"type":"Point","coordinates":[145.57,15.62]},"properties":{"Volcano_Name":"Ruby","Region":"Northern Mariana Islands","Elevation":-230,"Alert_Level":"UNASSIGNED","Color_Code":"UNASSIGNED","Threat":"Low Threat"}},{"type":"Feature","geometry":{"type":"Point","coordinates":[-164.333,66.3493]},"properties":{"Volcano_Name":"Saint Paul Island","Region":"Seward Peninsula","Elevation":203,"Alert_Level":"UNASSIGNED","Color_Code":"UNASSIGNED","Threat":""}},{"type":"Feature","geometry":{"type":"Point","coordinates":[-115.62,33.2]},"properties":{"Volcano_Name":"Salton Buttes","Region":"California","Elevation":-40,"Alert_Level":"NORMAL","Color_Code":"GREEN","Threat":"Low Threat"}},{"type":"Feature","geometry":{"type":"Point","coordinates":[-111.5,35.37]},"properties":{"Volcano_Name":"San Francisco Volcanic Field","Region":"Arizona","Elevation":2447,"Alert_Level":"UNASSIGNED","Color_Code":"UNASSIGNED","Threat":"Moderate Threat"}},{"type":"Feature","geometry":{"type":"Point","coordinates":[-121.93,44.38]},"properties":{"Volcano_Name":"Sand Mountain volcanic field","Region":"Oregon","Elevation":1664,"Alert_Level":"UNASSIGNED","Color_Code":"UNASSIGNED","Threat":"Very Low Threat"}},{"type":"Feature","geometry":{"type":"Point","coordinates":[145.78,16.708]},"properties":{"Volcano_Name":"Sarigan","Region":"Northern Mariana Islands","Elevation":538,"Alert_Level":"UNASSIGNED","Color_Code":"UNASSIGNED","Threat":"Moderate Threat"}},{"type":"Feature","geometry":{"type":"Point","coordinates":[-172.51,52.316]},"properties":{"Volcano_Name":"Seguam","Region":"Aleutians","Elevation":1054,"Alert_Level":"UNASSIGNED","Color_Code":"UNASSIGNED","Threat":"High Threat"}},{"type":"Feature","geometry":{"type":"Point","coordinates":[178.134,52.0138000000001]},"properties":{"Volcano_Name":"Segula","Region":"Aleutians","Elevation":1160,"Alert_Level":"UNASSIGNED","Color_Code":"UNASSIGNED","Threat":"Low Threat"}},{"type":"Feature","geometry":{"type":"Point","coordinates":[179.5977,51.9288000000001]},"properties":{"Volcano_Name":"Semisopochnoi","Region":"Aleutians","Elevation":1221,"Alert_Level":"NORMAL","Color_Code":"GREEN","Threat":"High Threat"}},{"type":"Feature","geometry":{"type":"Point","coordinates":[-163.9711,54.7554000000001]},"properties":{"Volcano_Name":"Shishaldin","Region":"Aleutians","Elevation":2857,"Alert_Level":"ADVISORY","Color_Code":"YELLOW","Threat":"High Threat"}},{"type":"Feature","geometry":{"type":"Point","coordinates":[-154.6859,58.3336]},"properties":{"Volcano_Name":"Snowy Mountain","Region":"Alaska Peninsula","Elevation":2162,"Alert_Level":"NORMAL","Color_Code":"GREEN","Threat":"Moderate Threat"}},{"type":"Feature","geometry":{"type":"Point","coordinates":[-118.880719,39.51764]},"properties":{"Volcano_Name":"Soda Lakes","Region":"Nevada","Elevation":1251,"Alert_Level":"UNASSIGNED","Color_Code":"UNASSIGNED","Threat":"Moderate Threat"}},{"type":"Feature","geometry":{"type":"Point","coordinates":[145.78,16.58]},"properties":{"Volcano_Name":"South Sarigan seamount","Region":"Northern Mariana Islands","Elevation":-184,"Alert_Level":"UNASSIGNED","Color_Code":"UNASSIGNED","Threat":"Low Threat"}},{"type":"Feature","geometry":{"type":"Point","coordinates":[-152.2539,61.2989000000001]},"properties":{"Volcano_Name":"Spurr","Region":"Cook Inlet-South Central","Elevation":3374,"Alert_Level":"NORMAL","Color_Code":"GREEN","Threat":"Very High Threat"}},{"type":"Feature","geometry":{"type":"Point","coordinates":[-162.123,63.4493000000001]},"properties":{"Volcano_Name":"St. Michael","Region":"Southwest Alaska","Elevation":715,"Alert_Level":"UNASSIGNED","Color_Code":"UNASSIGNED","Threat":"Low Threat"}},{"type":"Feature","geometry":{"type":"Point","coordinates":[-154.3903,58.4301]},"properties":{"Volcano_Name":"Steller","Region":"Alaska Peninsula","Elevation":2272,"Alert_Level":"UNASSIGNED","Color_Code":"UNASSIGNED","Threat":"Moderate Threat"}},{"type":"Feature","geometry":{"type":"Point","coordinates":[-160.041,55.9125000000001]},"properties":{"Volcano_Name":"Stepovak Bay group","Region":"Alaska Peninsula","Elevation":1323,"Alert_Level":"UNASSIGNED","Color_Code":"UNASSIGNED","Threat":"Low Threat"}},{"type":"Feature","geometry":{"type":"Point","coordinates":[145.1,20.13]},"properties":{"Volcano_Name":"Supply Reef","Region":"Northern Mariana Islands","Elevation":-8,"Alert_Level":"UNASSIGNED","Color_Code":"UNASSIGNED","Threat":"Very Low Threat"}},{"type":"Feature","geometry":{"type":"Point","coordinates":[-169.454,-14.23]},"properties":{"Volcano_Name":"Ta'u Island","Region":"American Samoa","Elevation":931,"Alert_Level":"NORMAL","Color_Code":"GREEN","Threat":"Low Threat"}},{"type":"Feature","geometry":{"type":"Point","coordinates":[-178.027,51.8670000000001]},"properties":{"Volcano_Name":"Takawangha","Region":"Aleutians","Elevation":1449,"Alert_Level":"NORMAL","Color_Code":"GREEN","Threat":"Low Threat"}},{"type":"Feature","geometry":{"type":"Point","coordinates":[-169.758,52.8390000000001]},"properties":{"Volcano_Name":"Tana","Region":"Aleutians","Elevation":1170,"Alert_Level":"UNASSIGNED","Color_Code":"UNASSIGNED","Threat":"Low Threat"}},{"type":"Feature","geometry":{"type":"Point","coordinates":[-178.143,51.8840000000001]},"properties":{"Volcano_Name":"Tanaga","Region":"Aleutians","Elevation":1806,"Alert_Level":"NORMAL","Color_Code":"GREEN","Threat":"Moderate Threat"}},{"type":"Feature","geometry":{"type":"Point","coordinates":[-121.768,44.1030000000001]},"properties":{"Volcano_Name":"Three Sisters","Region":"Oregon","Elevation":3157,"Alert_Level":"NORMAL","Color_Code":"GREEN","Threat":"Very High Threat"}},{"type":"Feature","geometry":{"type":"Point","coordinates":[-133.302,55.2496]},"properties":{"Volcano_Name":"Tlevak Strait-Suemez Island","Region":"Southeast Alaska","Elevation":50,"Alert_Level":"UNASSIGNED","Color_Code":"UNASSIGNED","Threat":"Very Low Threat"}},{"type":"Feature","geometry":{"type":"Point","coordinates":[-155.1026,58.2343000000001]},"properties":{"Volcano_Name":"Trident","Region":"Alaska Peninsula","Elevation":1864,"Alert_Level":"NORMAL","Color_Code":"GREEN","Threat":"High Threat"}},{"type":"Feature","geometry":{"type":"Point","coordinates":[-170.7,-14.295]},"properties":{"Volcano_Name":"Tutuila Island","Region":"American Samoa","Elevation":653,"Alert_Level":"NORMAL","Color_Code":"GREEN","Threat":"Low Threat"}},{"type":"Feature","geometry":{"type":"Point","coordinates":[-117.45,37.02]},"properties":{"Volcano_Name":"Ubehebe Craters","Region":"California","Elevation":752,"Alert_Level":"NORMAL","Color_Code":"GREEN","Threat":"Moderate Threat"}},{"type":"Feature","geometry":{"type":"Point","coordinates":[-156.37,57.7503]},"properties":{"Volcano_Name":"Ugashik-Peulik","Region":"Alaska Peninsula","Elevation":1474,"Alert_Level":"NORMAL","Color_Code":"GREEN","Threat":"High Threat"}},{"type":"Feature","geometry":{"type":"Point","coordinates":[-113.13,36.38]},"properties":{"Volcano_Name":"Uinkaret Volcanic Field","Region":"Arizona","Elevation":1555,"Alert_Level":"UNASSIGNED","Color_Code":"UNASSIGNED","Threat":"Very Low Threat"}},{"type":"Feature","geometry":{"type":"Point","coordinates":[-156.5139,57.8338000000001]},"properties":{"Volcano_Name":"Ukinrek Maars","Region":"Alaska Peninsula","Elevation":91,"Alert_Level":"NORMAL","Color_Code":"GREEN","Threat":"Moderate Threat"}},{"type":"Feature","geometry":{"type":"Point","coordinates":[-169.767,53.065]},"properties":{"Volcano_Name":"Uliaga","Region":"Aleutians","Elevation":888,"Alert_Level":"UNASSIGNED","Color_Code":"UNASSIGNED","Threat":"Low Threat"}},{"type":"Feature","geometry":{"type":"Point","coordinates":[-155.422,57.869]},"properties":{"Volcano_Name":"Unnamed (near Ukinrek Maars)","Region":"Alaska Peninsula","Elevation":300,"Alert_Level":"UNASSIGNED","Color_Code":"UNASSIGNED","Threat":"Low Threat"}},{"type":"Feature","geometry":{"type":"Point","coordinates":[-106.57,35.8700000000001]},"properties":{"Volcano_Name":"Valles Caldera","Region":"New Mexico","Elevation":3430,"Alert_Level":"UNASSIGNED","Color_Code":"UNASSIGNED","Threat":"Moderate Threat"}},{"type":"Feature","geometry":{"type":"Point","coordinates":[-159.3931,56.1979000000001]},"properties":{"Volcano_Name":"Veniaminof","Region":"Alaska Peninsula","Elevation":2507,"Alert_Level":"NORMAL","Color_Code":"GREEN","Threat":"High Threat"}},{"type":"Feature","geometry":{"type":"Point","coordinates":[-168.6937,53.1256000000001]},"properties":{"Volcano_Name":"Vsevidof","Region":"Aleutians","Elevation":2149,"Alert_Level":"UNASSIGNED","Color_Code":"UNASSIGNED","Threat":"Moderate Threat"}},{"type":"Feature","geometry":{"type":"Point","coordinates":[-113.22,42.88]},"properties":{"Volcano_Name":"Wapi Lava Field","Region":"Idaho","Elevation":1604,"Alert_Level":"UNASSIGNED","Color_Code":"UNASSIGNED","Threat":"Low Threat"}},{"type":"Feature","geometry":{"type":"Point","coordinates":[-122.08,45.88]},"properties":{"Volcano_Name":"West Crater volcanic field","Region":"Washington","Elevation":1329,"Alert_Level":"UNASSIGNED","Color_Code":"UNASSIGNED","Threat":"Low Threat"}},{"type":"Feature","geometry":{"type":"Point","coordinates":[-164.6476,54.5171]},"properties":{"Volcano_Name":"Westdahl","Region":"Aleutians","Elevation":1654,"Alert_Level":"NORMAL","Color_Code":"GREEN","Threat":"High Threat"}},{"type":"Feature","geometry":{"type":"Point","coordinates":[-155.21516,58.4088100000001]},"properties":{"Volcano_Name":"Wide Bay","Region":"Alaska","Elevation":792,"Alert_Level":"UNASSIGNED","Color_Code":"UNASSIGNED","Threat":""}},{"type":"Feature","geometry":{"type":"Point","coordinates":[-144.01935,62.00572]},"properties":{"Volcano_Name":"Wrangell","Region":"Wrangell Volcanic Field","Elevation":4317,"Alert_Level":"NORMAL","Color_Code":"GREEN","Threat":"High Threat"}},{"type":"Feature","geometry":{"type":"Point","coordinates":[-157.1864,57.0179000000001]},"properties":{"Volcano_Name":"Yantarni","Region":"Alaska Peninsula","Elevation":1345,"Alert_Level":"UNASSIGNED","Color_Code":"UNASSIGNED","Threat":"Moderate Threat"}},{"type":"Feature","geometry":{"type":"Point","coordinates":[-110.67,44.4300000000001]},"properties":{"Volcano_Name":"Yellowstone","Region":"Wyoming","Elevation":2805,"Alert_Level":"NORMAL","Color_Code":"GREEN","Threat":"High Threat"}},{"type":"Feature","geometry":{"type":"Point","coordinates":[-170.659,52.6490000000001]},"properties":{"Volcano_Name":"Yunaska","Region":"Aleutians","Elevation":550,"Alert_Level":"UNASSIGNED","Color_Code":"UNASSIGNED","Threat":"Moderate Threat"}},{"type":"Feature","geometry":{"type":"Point","coordinates":[145.85,16.88]},"properties":{"Volcano_Name":"Zealandia Bank","Region":"Northern Mariana Islands","Elevation":0,"Alert_Level":"UNASSIGNED","Color_Code":"UNASSIGNED","Threat":"Low Threat"}},{"type":"Feature","geometry":{"type":"Point","coordinates":[-108,34.8000000000001]},"properties":{"Volcano_Name":"Zuni-Bandera Volcanic Field","Region":"New Mexico","Elevation":2550,"Alert_Level":"UNASSIGNED","Color_Code":"UNASSIGNED","Threat":"Very Low Threat"}}]}